BEIDOU 3 (C01)          
1 36287U 10001A   22357.64437847 -.00000266  00000+0  00000+0 0  9993
2 36287   1.8452  51.1661 0002082 259.2818 154.1298  1.00272569 47413
BEIDOU 5 (C06)          
1 36828U 10036A   22357.53804567 -.00000042  00000+0  00000+0 0  9999
2 36828  54.2019 174.5005 0034546 181.9070  34.6331  1.00297016 45476
BEIDOU 6 (C04)          
1 37210U 10057A   22357.57881176 -.00000098  00000+0  00000+0 0  9994
2 37210   0.8883  49.3931 0006210 172.7471 238.2429  1.00270206 44533
BEIDOU 7 (C07)          
1 37256U 10068A   22357.61699566 -.00000189  00000+0  00000+0 0  9992
2 37256  49.8765 287.3802 0020834 206.2681 284.3917  1.00247553 44049
BEIDOU 8 (C08)          
1 37384U 11013A   22357.64749914 -.00000183  00000+0  00000+0 0  9995
2 37384  60.5653  52.3942 0024071 186.6177 192.3340  1.00258175 42925
BEIDOU 9 (C09)          
1 37763U 11038A   22357.48730008  .00000070  00000+0  00000+0 0  9993
2 37763  54.4791 177.0053 0101372 227.3159 317.7296  1.00284166 41899
BEIDOU 10 (C10)         
1 37948U 11073A   22356.79742086 -.00000155  00000+0  00000+0 0  9994
2 37948  49.9978 287.0419 0086155 221.0258 324.5514  1.00291647 40643
BEIDOU 11 (C05)         
1 38091U 12008A   22356.20327209  .00000077  00000+0  00000+0 0  9997
2 38091   1.9893  70.9117 0009314 311.8825 199.8259  1.00273998 39715
BEIDOU 12 (C11)         
1 38250U 12018A   22357.15934052 -.00000066  00000+0  00000+0 0  9999
2 38250  56.6307 347.3223 0025116 257.5573 112.1550  1.86234424 72604
BEIDOU 13 (C12)         
1 38251U 12018B   22357.04810058 -.00000066  00000+0  00000+0 0  9997
2 38251  56.5453 346.6389 0016039 259.7725  79.4653  1.86234226 72595
BEIDOU 15 (C14)         
1 38775U 12050B   22356.73954652 -.00000009  00000+0  00000+0 0  9995
2 38775  55.5173 105.3515 0011080 328.8488 359.0075  1.86231237 69961
BEIDOU 16 (C02)         
1 38953U 12059A   22356.98992551 -.00000158  00000+0  00000+0 0  9994
2 38953   1.3878  82.0442 0008859 291.2671 158.6820  1.00273019 37299
BEIDOU 17 (C31)         
1 40549U 15019A   22357.51166534 -.00000171  00000+0  00000+0 0  9996
2 40549  51.5612 310.5520 0037055 200.7343 217.6790  1.00256577 28330
BEIDOU 18 (C57)         
1 40748U 15037A   22357.23975314 -.00000068  00000+0  00000+0 0  9995
2 40748  55.7934 345.3821 0003404 331.1186  45.8180  1.86233378 50437
BEIDOU 19 (C58)         
1 40749U 15037B   22357.19519087 -.00000068  00000+0  00000+0 0  9992
2 40749  55.7984 345.3751 0006175 303.5113 177.6204  1.86233036 50427
BEIDOU 20 (C18)         
1 40938U 15053A   22353.76368086 -.00000132  00000+0  00000+0 0  9992
2 40938  51.2224 273.7396 0042875 195.4349 346.8456  1.00295859 26553
BEIDOU IGSO-6 (C13)     
1 41434U 16021A   22357.53772565 -.00000160  00000+0  00000+0 0  9991
2 41434  58.3771  50.8870 0049513 221.6951 107.9407  1.00288928 24726
BEIDOU-2 G7 (C03)       
1 41586U 16037A   22357.59201804 -.00000340  00000+0  00000+0 0  9995
2 41586   1.8014  69.9010 0007760 349.0165 356.8751  1.00272532 24039
BEIDOU-3 M1 (C19)       
1 43001U 17069A   22356.63085233 -.00000009  00000+0  00000+0 0  9997
2 43001  55.6702 105.3802 0008071 285.8425 125.5635  1.86231608 34902
BEIDOU-3 M2 (C20)       
1 43002U 17069B   22356.55990830 -.00000008  00000+0  00000+0 0  9996
2 43002  55.6701 105.4186 0005501 314.2964  92.3289  1.86231276 34893
BEIDOU-3 M3 (C27)       
1 43107U 18003A   22354.86841645 -.00000062  00000+0  00000+0 0  9992
2 43107  55.2456 346.2986 0003069  44.6097 114.3854  1.86232463 33625
BEIDOU-3 M4 (C28)       
1 43108U 18003B   22356.41902793 -.00000066  00000+0  00000+0 0  9992
2 43108  55.2396 346.2338 0004600 259.8383 261.6016  1.86230921 33656
BEIDOU-3 M5 (C21)       
1 43207U 18018A   22356.62195654 -.00000008  00000+0  00000+0 0  9997
2 43207  55.6284 105.4884 0003323 356.3410   3.6317  1.86231447 33047
BEIDOU-3 M6 (C22)       
1 43208U 18018B   22356.15165760 -.00000008  00000+0  00000+0 0  9991
2 43208  55.6273 105.5090 0005647 298.5781  61.3398  1.86231577 33038
BEIDOU-3 M7 (C29)       
1 43245U 18029A   22357.03345291 -.00000068  00000+0  00000+0 0  9997
2 43245  55.1519 343.9789 0001847 271.2486 169.8869  1.86232661 32208
BEIDOU-3 M8 (C30)       
1 43246U 18029B   22356.55352177 -.00000067  00000+0  10000-3 0  9999
2 43246  55.1488 344.0243 0004453 339.3180 186.7382  1.86232973 32185
BEIDOU IGSO-7 (C16)     
1 43539U 18057A   22357.42557534 -.00000048  00000+0  00000+0 0  9990
2 43539  55.0901 174.0596 0051331 225.0912 317.9069  1.00252474 16403
BEIDOU-3 M9 (C23)       
1 43581U 18062A   22356.39181939  .00000098  00000+0  00000+0 0  9994
2 43581  54.2271 225.6565 0003052 312.5427 316.6143  1.86231969 29920
BEIDOU-3 M10 (C24)      
1 43582U 18062B   22357.04502057  .00000094  00000+0  00000+0 0  9992
2 43582  54.2259 225.6229 0006673  18.5237  60.5424  1.86231610 29940
BEIDOU-3 M11 (C25)      
1 43602U 18067A   22357.12227066  .00000095  00000+0  00000+0 0  9994
2 43602  54.3105 224.2525 0007957  16.5978 155.2369  1.86231564 29436
BEIDOU-3 M12 (C26)      
1 43603U 18067B   22356.86775183  .00000097  00000+0  00000+0 0  9995
2 43603  54.3080 224.2274 0004910  11.5588 259.9722  1.86231517 29442
BEIDOU-3 M13 (C32)      
1 43622U 18072A   22356.86365648 -.00000009  00000+0  00000+0 0  9997
2 43622  55.5973 105.0292 0004945 275.4323  22.0771  1.86231386 28951
BEIDOU-3 M14 (C33)      
1 43623U 18072B   22356.90501648 -.00000009  00000+0  00000+0 0  9995
2 43623  55.5989 105.0196 0002271 313.4982 101.9840  1.86231407 28965
BEIDOU-3 M15 (C34)      
1 43647U 18078A   22356.68584836 -.00000068  00000+0  10000-3 0  9992
2 43647  55.0436 344.1314 0009281   1.0901 163.2749  1.86225700 28463
BEIDOU-3 M16 (C35)      
1 43648U 18078B   22356.87857931 -.00000068  00000+0  00000+0 0  9998
2 43648  55.0429 344.1325 0003914 354.4699 206.5730  1.86232239 28482
BEIDOU-3 G1 (C59)       
1 43683U 18085A   22357.50535733 -.00000261  00000+0  00000+0 0  9994
2 43683   1.0282 148.6960 0003571 188.1961  77.1580  1.00269817 15304
BEIDOU-3 M17 (C36)      
1 43706U 18093A   22356.19193988  .00000099  00000+0  00000+0 0  9993
2 43706  54.3083 225.5618 0007474 290.6436  69.3794  1.86231850 27838
BEIDOU-3 M18 (C37)      
1 43707U 18093B   22356.78197184  .00000096  00000+0  00000+0 0  9998
2 43707  54.3093 225.5327 0007479 321.4522 165.5664  1.86232318 27836
BEIDOU-3 IGSO-1 (C38)   
1 44204U 19023A   22357.65624789 -.00000220  00000+0  00000+0 0  9998
2 44204  56.8358  50.9510 0024142 196.0683 197.8460  1.00252647 13610
BEIDOU-2 G8             
1 44231U 19027A   22357.58382556 -.00000233  00000+0  00000+0 0  9991
2 44231   1.3190  80.3148 0006236 135.7115 230.7274  1.00267335 13325
BEIDOU-3 IGSO-2 (C39)   
1 44337U 19035A   22356.14825057 -.00000041  00000+0  00000+0 0  9993
2 44337  55.1343 170.0558 0025912 188.3276 261.1361  1.00246451 12932
BEIDOU-3 M23 (C45)      
1 44542U 19061A   22357.20237255  .00000093  00000+0  00000+0 0  9991
2 44542  54.5349 225.7063 0008909 358.6994   1.4013  1.86231416 22102
BEIDOU-3 M24 (C46)      
1 44543U 19061B   22357.05419057  .00000094  00000+0  00000+0 0  9998
2 44543  54.5327 225.6814 0005855 353.6880 178.6052  1.86231947 22095
BEIDOU-3 IGSO-3         
1 44709U 19073A   22357.62866473 -.00000198  00000+0  10000-3 0  9997
2 44709  56.9613 294.4165 0025829 182.2567 318.5290  1.00251817 11694
BEIDOU-3 M21            
1 44793U 19078A   22357.04077086 -.00000069  00000+0  10000-3 0  9992
2 44793  54.8962 344.1202 0005999 358.1310 357.8339  1.86232239 20952
BEIDOU-3 M22            
1 44794U 19078B   22356.94573490 -.00000069  00000+0  00000+0 0  9996
2 44794  54.8698 344.1112 0004280 346.0189 218.2208  1.86232721 20952
BEIDOU-3 M19            
1 44864U 19090A   22357.14125786 -.00000009  00000+0  00000+0 0  9996
2 44864  55.5312 105.2203 0015882 267.1181 262.4800  1.86231769 20548
BEIDOU-3 M20            
1 44865U 19090B   22357.28380031 -.00000008  00000+0  00000+0 0  9997
2 44865  55.5336 105.2476 0013670 281.6434  73.3559  1.86231697 20519
BEIDOU-3 G2             
1 45344U 20017A   22357.56294770 -.00000126  00000+0  00000+0 0  9997
2 45344   1.9930   2.1572 0001454 210.3826 162.2191  1.00269547 10510
BEIDOU-3 G3             
1 45807U 20040A   22357.49731229 -.00000336  00000+0  00000+0 0  9997
2 45807   1.0296 311.4558 0008285 340.4214  89.7380  1.00273310  9328
